NORAD_CAT_ID,OBJECT_NAME,OBJECT_TYPE,EPOCH,MEAN_MOTION,ECCENTRICITY,INCLINATION,RA_OF_ASC_NODE,ARG_OF_PERICENTER,MEAN_ANOMALY,BSTAR,MEAN_MOTION_DOT,MEAN_MOTION_DDOT,TLE_LINE0,TLE_LINE1,TLE_LINE2,SEMIMAJOR_AXIS,PERIOD,APOGEE,PERIGEE,DECAYED
53837.0,STARLINK-4776,PAYLOAD,2023-09-09 13:14:18,15.0883745,0.0001318,53.2181,78.5761,102.0175,258.0965,2.9627e-06,-2.41e-06,0.0,0 STARLINK-4776,1 53837U 22114V   23252.55160468 -.00000241  00000-0  29627-5 0  9994,2 53837  53.2181  78.5761 0001318 102.0175 258.0965 15.08837450 55131,6917.888,95.438,540.665,538.841,0.0
53837.0,STARLINK-4776,PAYLOAD,2023-09-10 11:29:42,15.08838646,0.0001353,53.2188,74.414,101.3114,258.803,4.6854e-05,4.58e-06,0.0,0 STARLINK-4776,1 53837U 22114V   23253.47896457  .00000458  00000-0  46854-4 0  9999,2 53837  53.2188  74.4140 0001353 101.3114 258.8030 15.08838646 54732,6917.885,95.438,540.686,538.814,0.0
53837.0,STARLINK-4776,PAYLOAD,2023-09-10 13:05:05,15.08836023,0.0001368,53.219,74.1167,101.1417,258.9729,2.3967e-05,9.4e-07,0.0,0 STARLINK-4776,1 53837U 22114V   23253.54520733  .00000094  00000-0  23967-4 0  9994,2 53837  53.2190  74.1167 0001368 101.1417 258.9729 15.08836023 55285,6917.893,95.438,540.704,538.811,0.0
53837.0,STARLINK-4776,PAYLOAD,2023-09-11 12:55:52,15.08837905,0.0001374,53.2191,69.6557,92.8494,267.2656,5.6855e-05,6.17e-06,0.0,0 STARLINK-4776,1 53837U 22114V   23254.53880778  .00000617  00000-0  56855-4 0  9995,2 53837  53.2191  69.6557 0001374  92.8494 267.2656 15.08837905 55435,6917.887,95.438,540.702,538.801,0.0
53837.0,STARLINK-4776,PAYLOAD,2023-09-11 17:42:02,15.08842567,0.0001353,53.2193,68.7636,90.3897,269.725,5.2936e-05,5.55e-06,0.0,0 STARLINK-4776,1 53837U 22114V   23254.73752517  .00000555  00000-0  52936-4 0  9993,2 53837  53.2193  68.7636 0001353  90.3897 269.7250 15.08842567 54922,6917.873,95.437,540.674,538.802,0.0
53837.0,STARLINK-4776,PAYLOAD,2023-09-12 11:11:16,15.08836376,0.0001283,53.2181,65.4912,85.9566,274.1573,6.2937e-05,7.14e-06,0.0,0 STARLINK-4776,1 53837U 22114V   23255.46616858  .00000714  00000-0  62937-4 0  9990,2 53837  53.2181  65.4912 0001283  85.9566 274.1573 15.08836376 55037,6917.891,95.438,540.644,538.869,0.0
53837.0,STARLINK-4776,PAYLOAD,2023-09-12 19:08:12,15.08844206,0.0001346,53.2182,64.0046,83.2793,276.8352,7.2406e-05,8.65e-06,0.0,0 STARLINK-4776,1 53837U 22114V   23255.79736462  .00000865  00000-0  72406-4 0  9999,2 53837  53.2182  64.0046 0001346  83.2793 276.8352 15.08844206 55624,6917.868,95.437,540.664,538.801,0.0
53837.0,STARLINK-4776,PAYLOAD,2023-09-13 04:40:31,15.08836292,0.000138,53.2183,62.22,89.1463,270.9687,0.00023062,3.384e-05,0.0,0 STARLINK-4776,1 53837U 22114V   23256.19480524  .00003384  00000-0  23062-3 0  9991,2 53837  53.2183  62.2200 0001380  89.1463 270.9687 15.08836292 55682,6917.892,95.438,540.711,538.802,0.0
53837.0,STARLINK-4776,PAYLOAD,2023-09-13 17:23:35,15.08849948,0.0001418,53.2183,59.8401,90.1965,269.919,0.00011251,1.504e-05,0.0,0 STARLINK-4776,1 53837U 22114V   23256.72471726  .00001504  00000-0  11251-3 0  9993,2 53837  53.2183  59.8401 0001418  90.1965 269.9190 15.08849948 55766,6917.85,95.437,540.696,538.734,0.0
53837.0,STARLINK-4776,PAYLOAD,2023-09-14 10:52:51,15.08833851,0.0001385,53.218,56.5707,83.832,276.283,9.8872e-06,-1.31e-06,0.0,0 STARLINK-4776,1 53837U 22114V   23257.45337157 -.00000131  00000-0  98872-5 0  9995,2 53837  53.2180  56.5707 0001385  83.8320 276.2830 15.08833851 55334,6917.899,95.438,540.722,538.806,0.0
53837.0,STARLINK-4776,PAYLOAD,2023-09-14 20:25:10,15.08832244,0.0001312,53.2182,54.7852,97.166,262.9482,-5.1225e-05,-1.103e-05,0.0,0 STARLINK-4776,1 53837U 22114V   23257.85081546 -.00001103  00000-0 -51225-4 0  9998,2 53837  53.2182  54.7852 0001312  97.1660 262.9482 15.08832244 55938,6917.904,95.438,540.677,538.861,0.0
53837.0,STARLINK-4776,PAYLOAD,2023-09-15 13:54:24,15.08842182,0.0001218,53.2185,51.5155,93.1971,266.916,4.374e-05,4.08e-06,0.0,0 STARLINK-4776,1 53837U 22114V   23258.57944782  .00000408  00000-0  43740-4 0  9996,2 53837  53.2185  51.5155 0001218  93.1971 266.9160 15.08842182 56040,6917.874,95.437,540.581,538.896,0.0
53837.0,STARLINK-4776,PAYLOAD,2023-09-15 17:05:10,15.08845595,0.0001086,53.2183,50.9207,94.6028,265.5088,9.0479e-05,1.153e-05,0.0,0 STARLINK-4776,1 53837U 22114V   23258.71192404  .00001153  00000-0  90479-4 0  9997,2 53837  53.2183  50.9207 0001086  94.6028 265.5088 15.08845595 55528,6917.863,95.437,540.48,538.977,0.0
53837.0,STARLINK-4776,PAYLOAD,2023-09-16 10:34:25,15.08831073,0.0001377,53.219,47.65,101.6405,258.4742,0.00014085,1.954e-05,0.0,0 STARLINK-4776,1 53837U 22114V   23259.44057391  .00001954  00000-0  14085-3 0  9990,2 53837  53.2190  47.6500 0001377 101.6405 258.4742 15.08831073 55632,6917.908,95.438,540.725,538.82,0.0
53837.0,STARLINK-4776,PAYLOAD,2023-09-16 13:45:11,15.08831106,0.0001289,53.219,47.0558,99.6206,260.4932,0.00012196,1.653e-05,0.0,0 STARLINK-4776,1 53837U 22114V   23259.57305541  .00001653  00000-0  12196-3 0  9994,2 53837  53.2190  47.0558 0001289  99.6206 260.4932 15.08831106 56199,6917.908,95.438,540.664,538.881,0.0
53837.0,STARLINK-4776,PAYLOAD,2023-09-17 10:25:12,15.08844746,0.0001253,53.2191,43.1903,94.2239,265.8897,5.6735e-06,-1.98e-06,0.0,0 STARLINK-4776,1 53837U 22114V   23260.43417374 -.00000198  00000-0  56735-5 0  9992,2 53837  53.2191  43.1903 0001253  94.2239 265.8897 15.08844746 56327,6917.866,95.437,540.598,538.864,0.0
53837.0,STARLINK-4776,PAYLOAD,2023-09-17 16:46:44,15.08850772,0.0001261,53.2193,42.0013,95.9387,264.1749,6.9862e-05,8.24e-06,0.0,0 STARLINK-4776,1 53837U 22114V   23260.69912708  .00000824  00000-0  69862-4 0  9990,2 53837  53.2193  42.0013 0001261  95.9387 264.1749 15.08850772 55828,6917.847,95.437,540.585,538.84,0.0
53837.0,STARLINK-4776,PAYLOAD,2023-09-18 02:19:04,15.08833003,0.0001812,53.2188,40.2164,89.8971,270.2229,-2.0804e-07,-2.91e-06,0.0,0 STARLINK-4776,1 53837U 22114V   23261.09658187 -.00000291  00000-0 -20804-6 0  9998,2 53837  53.2188  40.2164 0001812  89.8971 270.2229 15.08833003 55887,6917.902,95.438,541.02,538.513,0.0
53837.0,STARLINK-4776,PAYLOAD,2023-09-18 13:26:46,15.08837285,0.0001362,53.2187,38.1342,91.1968,268.918,6.1974e-05,6.98e-06,0.0,0 STARLINK-4776,1 53837U 22114V   23261.56025751  .00000698  00000-0  61974-4 0  9995,2 53837  53.2187  38.1342 0001362  91.1968 268.9180 15.08837285 56496,6917.889,95.438,540.696,538.811,0.0
53837.0,STARLINK-4776,PAYLOAD,2023-09-18 16:37:32,15.08840205,0.0001345,53.219,37.5402,91.764,268.3506,9.4145e-05,1.211e-05,0.0,0 STARLINK-4776,1 53837U 22114V   23261.69273561  .00001211  00000-0  94145-4 0  9991,2 53837  53.2190  37.5402 0001345  91.7640 268.3506 15.08840205 55978,6917.88,95.438,540.675,538.814,0.0
53837.0,STARLINK-4776,PAYLOAD,2023-09-19 16:28:18,15.08853019,0.0001498,53.2191,33.0788,82.5271,277.5891,0.00018522,2.662e-05,0.0,0 STARLINK-4776,1 53837U 22114V   23262.68632577  .00002662  00000-0  18522-3 0  9992,2 53837  53.2191  33.0788 0001498  82.5271 277.5891 15.08853019 56128,6917.841,95.437,540.742,538.669,0.0
53837.0,STARLINK-4776,PAYLOAD,2023-09-20 13:08:20,15.08824287,0.0001399,53.2189,29.2136,111.1351,248.9791,-0.00014645,-2.617e-05,0.0,0 STARLINK-4776,1 53837U 22114V   23263.54746259 -.00002617  00000-0 -14645-3 0  9995,2 53837  53.2189  29.2136 0001399 111.1351 248.9791 15.08824287 56257,6917.928,95.439,540.761,538.826,0.0
53837.0,STARLINK-4776,PAYLOAD,2023-09-20 14:43:44,15.08822369,0.000145,53.2191,28.916,95.464,264.6518,-0.00017288,-3.037e-05,0.0,0 STARLINK-4776,1 53837U 22114V   23263.61370532 -.00003037  00000-0 -17288-3 0  9993,2 53837  53.2191  28.9160 0001450  95.4640 264.6518 15.08822369 56808,6917.934,95.439,540.802,538.796,0.0
53837.0,STARLINK-4776,PAYLOAD,2023-09-21 08:12:58,15.08836536,0.0001169,53.2188,25.6463,76.8358,283.2765,0.00018074,2.59e-05,0.0,0 STARLINK-4776,1 53837U 22114V   23264.34234322  .00002590  00000-0  18074-3 0  9995,2 53837  53.2188  25.6463 0001169  76.8358 283.2765 15.08836536 56374,6917.891,95.438,540.565,538.947,0.0
53837.0,STARLINK-4776,PAYLOAD,2023-09-21 12:59:07,15.08842395,0.0001533,53.2188,24.7535,77.6632,282.4532,0.00024951,3.685e-05,0.0,0 STARLINK-4776,1 53837U 22114V   23264.54106108  .00003685  00000-0  24951-3 0  9994,2 53837  53.2188  24.7535 0001533  77.6632 282.4532 15.08842395 56949,6917.873,95.437,540.799,538.678,0.0
53837.0,STARLINK-4776,PAYLOAD,2023-09-21 14:34:30,15.08853951,0.0001077,53.2192,24.4586,70.8863,289.2246,0.00026082,3.867e-05,0.0,0 STARLINK-4776,1 53837U 22114V   23264.60729438  .00003867  00000-0  26082-3 0  9997,2 53837  53.2192  24.4586 0001077  70.8863 289.2246 15.08853951 56410,6917.838,95.437,540.448,538.958,0.0
53837.0,STARLINK-4776,PAYLOAD,2023-09-22 01:42:12,15.08851671,0.0001586,53.2179,22.3777,67.5707,292.5453,0.00042355,6.461e-05,0.0,0 STARLINK-4776,1 53837U 22114V   23265.07097784  .00006461  00000-0  42355-3 0  9995,2 53837  53.2179  22.3777 0001586  67.5707 292.5453 15.08851671 56480,6917.845,95.437,540.807,538.613,0.0
53837.0,STARLINK-4776,PAYLOAD,2023-09-22 11:14:31,15.08845801,0.0001581,53.2181,20.5882,113.1938,246.9221,0.00036102,5.463e-05,0.0,0 STARLINK-4776,1 53837U 22114V   23265.46841927  .00005463  00000-0  36102-3 0  9998,2 53837  53.2181  20.5882 0001581 113.1938 246.9221 15.08845801 56540,6917.863,95.437,540.821,538.634,0.0
53837.0,STARLINK-4776,PAYLOAD,2023-09-22 12:49:54,15.08845922,0.0001501,53.219,20.2911,115.5192,244.5956,0.00034937,5.278e-05,0.0,0 STARLINK-4776,1 53837U 22114V   23265.53465919  .00005278  00000-0  34937-3 0  9997,2 53837  53.2190  20.2911 0001501 115.5192 244.5956 15.08845922 57094,6917.862,95.437,540.766,538.689,0.0
53837.0,STARLINK-4776,PAYLOAD,2023-09-22 14:25:17,15.08848071,0.0001551,53.2196,19.9945,114.0723,246.0432,0.00037062,5.617e-05,0.0,0 STARLINK-4776,1 53837U 22114V   23265.60089812  .00005617  00000-0  37062-3 0  9998,2 53837  53.2196  19.9945 0001551 114.0723 246.0432 15.08848071 57107,6917.856,95.437,540.794,538.648,0.0
